LEMUR-2-ANDIS           
1 42838U 17042P   26068.55941107  .00023598  00000+0  79875-3 0  9998
2 42838  97.3659 249.7950 0009101   4.3248 355.8070 15.30557934473198
STARLINK-34733          
1 66487U 25263C   26068.17221334  .00038612  00000+0  14055-2 0  9990
2 66487  43.0038 353.2895 0001439 252.0512 108.0183 15.27575434 18823
